[{"OBJECT_NAME":"FENGYUN 1C DEB","OBJECT_ID":"1999-025DPA","EPOCH":"2026-01-29T11:36:23.199840","MEAN_MOTION":14.60792313,"ECCENTRICITY":0.01121929,"INCLINATION":98.943,"RA_OF_ASC_NODE":121.6063,"ARG_OF_PERICENTER":289.6633,"MEAN_ANOMALY":69.2487,"EPHEMERIS_TYPE":0,"CLASSIFICATION_TYPE":"U","NORAD_CAT_ID":35194,"ELEMENT_SET_NO":999,"REV_AT_EPOCH":66087,"BSTAR":0.00147866,"MEAN_MOTION_DOT":7.838e-5,"MEAN_MOTION_DDOT":0},{"OBJECT_NAME":"FENGYUN 1C DEB","OBJECT_ID":"1999-025DPB","EPOCH":"2026-01-26T12:46:01.053696","MEAN_MOTION":14.5640591,"ECCENTRICITY":0.01016364,"INCLINATION":98.9793,"RA_OF_ASC_NODE":129.2802,"ARG_OF_PERICENTER":292.1798,"MEAN_ANOMALY":66.8637,"EPHEMERIS_TYPE":0,"CLASSIFICATION_TYPE":"U","NORAD_CAT_ID":35195,"ELEMENT_SET_NO":999,"REV_AT_EPOCH":91578,"BSTAR":0.0013162522,"MEAN_MOTION_DOT":6.212e-5,"MEAN_MOTION_DDOT":0},{"OBJECT_NAME":"FENGYUN 1C DEB","OBJECT_ID":"1999-025DPC","EPOCH":"2026-01-29T19:12:45.244224","MEAN_MOTION":14.20036939,"ECCENTRICITY":0.0214251,"INCLINATION":98.5348,"RA_OF_ASC_NODE":48.3066,"ARG_OF_PERICENTER":198.5729,"MEAN_ANOMALY":338.8403,"EPHEMERIS_TYPE":0,"CLASSIFICATION_TYPE":"U","NORAD_CAT_ID":35196,"ELEMENT_SET_NO":999,"REV_AT_EPOCH":89816,"BSTAR":0.00092711676,"MEAN_MOTION_DOT":2.44e-5,"MEAN_MOTION_DDOT":0},{"OBJECT_NAME":"FENGYUN 1C DEB","OBJECT_ID":"1999-025DPG","EPOCH":"2026-02-01T10:01:32.474208","MEAN_MOTION":13.42010375,"ECCENTRICITY":0.03516582,"INCLINATION":98.8769,"RA_OF_ASC_NODE":8.7907,"ARG_OF_PERICENTER":292.7075,"MEAN_ANOMALY":225.3057,"EPHEMERIS_TYPE":0,"CLASSIFICATION_TYPE":"U","NORAD_CAT_ID":35200,"ELEMENT_SET_NO":999,"REV_AT_EPOCH":66583,"BSTAR":0.00043931904,"MEAN_MOTION_DOT":3.16e-6,"MEAN_MOTION_DDOT":0},{"OBJECT_NAME":"FENGYUN 1C DEB","OBJECT_ID":"1999-025DPH","EPOCH":"2026-02-01T12:05:49.153632","MEAN_MOTION":14.11077163,"ECCENTRICITY":0.00077974,"INCLINATION":98.7078,"RA_OF_ASC_NODE":44.9923,"ARG_OF_PERICENTER":105.4957,"MEAN_ANOMALY":48.4505,"EPHEMERIS_TYPE":0,"CLASSIFICATION_TYPE":"U","NORAD_CAT_ID":35201,"ELEMENT_SET_NO":999,"REV_AT_EPOCH":87735,"BSTAR":0.00012019584,"MEAN_MOTION_DOT":1.74e-6,"MEAN_MOTION_DDOT":0},{"OBJECT_NAME":"FENGYUN 1C DEB","OBJECT_ID":"1999-025DPJ","EPOCH":"2026-01-31T13:24:29.900160","MEAN_MOTION":13.34805173,"ECCENTRICITY":0.03773131,"INCLINATION":100.0874,"RA_OF_ASC_NODE":81.0139,"ARG_OF_PERICENTER":248.7209,"MEAN_ANOMALY":107.3239,"EPHEMERIS_TYPE":0,"CLASSIFICATION_TYPE":"U","NORAD_CAT_ID":35202,"ELEMENT_SET_NO":999,"REV_AT_EPOCH":57641,"BSTAR":0.0010202706,"MEAN_MOTION_DOT":7.21e-6,"MEAN_MOTION_DDOT":0},{"OBJECT_NAME":"FENGYUN 1C DEB","OBJECT_ID":"1999-025DPK","EPOCH":"2026-02-01T18:07:18.692544","MEAN_MOTION":13.26642725,"ECCENTRICITY":0.05188504,"INCLINATION":102.0715,"RA_OF_ASC_NODE":13.2069,"ARG_OF_PERICENTER":47.3707,"MEAN_ANOMALY":316.9962,"EPHEMERIS_TYPE":0,"CLASSIFICATION_TYPE":"U","NORAD_CAT_ID":35203,"ELEMENT_SET_NO":999,"REV_AT_EPOCH":60327,"BSTAR":0.0014708691,"MEAN_MOTION_DOT":1.302e-5,"MEAN_MOTION_DDOT":0},{"OBJECT_NAME":"FENGYUN 1C DEB","OBJECT_ID":"1999-025DPL","EPOCH":"2026-01-31T12:07:31.687968","MEAN_MOTION":14.49854842,"ECCENTRICITY":0.00376302,"INCLINATION":99.0076,"RA_OF_ASC_NODE":228.3984,"ARG_OF_PERICENTER":175.0933,"MEAN_ANOMALY":216.2198,"EPHEMERIS_TYPE":0,"CLASSIFICATION_TYPE":"U","NORAD_CAT_ID":35204,"ELEMENT_SET_NO":999,"REV_AT_EPOCH":91651,"BSTAR":0.0018547546,"MEAN_MOTION_DOT":7.181e-5,"MEAN_MOTION_DDOT":0},{"OBJECT_NAME":"FENGYUN 1C DEB","OBJECT_ID":"1999-025DPP","EPOCH":"2026-01-28T01:24:26.477856","MEAN_MOTION":14.56508669,"ECCENTRICITY":0.00539652,"INCLINATION":98.689,"RA_OF_ASC_NODE":133.2932,"ARG_OF_PERICENTER":115.9451,"MEAN_ANOMALY":244.732,"EPHEMERIS_TYPE":0,"CLASSIFICATION_TYPE":"U","NORAD_CAT_ID":35207,"ELEMENT_SET_NO":999,"REV_AT_EPOCH":65578,"BSTAR":0.0024686779,"MEAN_MOTION_DOT":0.00011165,"MEAN_MOTION_DDOT":0},{"OBJECT_NAME":"FENGYUN 1C DEB","OBJECT_ID":"1999-025DPQ","EPOCH":"2026-02-01T20:23:30.093504","MEAN_MOTION":13.99859877,"ECCENTRICITY":0.01012245,"INCLINATION":98.9001,"RA_OF_ASC_NODE":55.6425,"ARG_OF_PERICENTER":15.0021,"MEAN_ANOMALY":345.4108,"EPHEMERIS_TYPE":0,"CLASSIFICATION_TYPE":"U","NORAD_CAT_ID":35208,"ELEMENT_SET_NO":999,"REV_AT_EPOCH":91278,"BSTAR":0.0011770967,"MEAN_MOTION_DOT":1.763e-5,"MEAN_MOTION_DDOT":0},{"OBJECT_NAME":"FENGYUN 1C DEB","OBJECT_ID":"1999-025DPS","EPOCH":"2026-02-01T12:11:17.770848","MEAN_MOTION":14.34414303,"ECCENTRICITY":0.00499363,"INCLINATION":99.0975,"RA_OF_ASC_NODE":43.9215,"ARG_OF_PERICENTER":91.3902,"MEAN_ANOMALY":59.9183,"EPHEMERIS_TYPE":0,"CLASSIFICATION_TYPE":"U","NORAD_CAT_ID":35210,"ELEMENT_SET_NO":999,"REV_AT_EPOCH":90850,"BSTAR":0.0019674559,"MEAN_MOTION_DOT":5.573e-5,"MEAN_MOTION_DDOT":0},{"OBJECT_NAME":"FENGYUN 1C DEB","OBJECT_ID":"1999-025DPZ","EPOCH":"2026-01-28T12:02:43.994976","MEAN_MOTION":13.57696429,"ECCENTRICITY":0.02960616,"INCLINATION":101.8784,"RA_OF_ASC_NODE":318.3501,"ARG_OF_PERICENTER":187.6563,"MEAN_ANOMALY":171.9993,"EPHEMERIS_TYPE":0,"CLASSIFICATION_TYPE":"U","NORAD_CAT_ID":35217,"ELEMENT_SET_NO":999,"REV_AT_EPOCH":61854,"BSTAR":0.0021047017,"MEAN_MOTION_DOT":1.952e-5,"MEAN_MOTION_DDOT":0},{"OBJECT_NAME":"FENGYUN 1C DEB","OBJECT_ID":"1999-025DQC","EPOCH":"2026-01-23T03:58:47.637696","MEAN_MOTION":14.22926258,"ECCENTRICITY":0.00461604,"INCLINATION":99.0242,"RA_OF_ASC_NODE":99.2157,"ARG_OF_PERICENTER":189.528,"MEAN_ANOMALY":170.5026,"EPHEMERIS_TYPE":0,"CLASSIFICATION_TYPE":"U","NORAD_CAT_ID":35220,"ELEMENT_SET_NO":999,"REV_AT_EPOCH":63772,"BSTAR":0.0024706395,"MEAN_MOTION_DOT":5.575e-5,"MEAN_MOTION_DDOT":0},{"OBJECT_NAME":"FENGYUN 1C DEB","OBJECT_ID":"1999-025DQF","EPOCH":"2026-01-30T22:18:18.727488","MEAN_MOTION":14.89806521,"ECCENTRICITY":0.01273106,"INCLINATION":98.9766,"RA_OF_ASC_NODE":24.9818,"ARG_OF_PERICENTER":167.9604,"MEAN_ANOMALY":192.4703,"EPHEMERIS_TYPE":0,"CLASSIFICATION_TYPE":"U","NORAD_CAT_ID":35223,"ELEMENT_SET_NO":999,"REV_AT_EPOCH":94614,"BSTAR":0.00056817566,"MEAN_MOTION_DOT":6.279e-5,"MEAN_MOTION_DDOT":0},{"OBJECT_NAME":"FENGYUN 1C DEB","OBJECT_ID":"1999-025DQM","EPOCH":"2026-01-29T23:25:59.985408","MEAN_MOTION":14.63892112,"ECCENTRICITY":0.00406064,"INCLINATION":98.4537,"RA_OF_ASC_NODE":115.0926,"ARG_OF_PERICENTER":65.2542,"MEAN_ANOMALY":295.2877,"EPHEMERIS_TYPE":0,"CLASSIFICATION_TYPE":"U","NORAD_CAT_ID":35229,"ELEMENT_SET_NO":999,"REV_AT_EPOCH":65211,"BSTAR":0.0069218446,"MEAN_MOTION_DOT":0.00036759,"MEAN_MOTION_DDOT":0},{"OBJECT_NAME":"FENGYUN 1C DEB","OBJECT_ID":"1999-025DQP","EPOCH":"2026-01-30T09:40:42.788928","MEAN_MOTION":14.14533165,"ECCENTRICITY":0.0036081,"INCLINATION":98.7134,"RA_OF_ASC_NODE":77.4081,"ARG_OF_PERICENTER":307.0675,"MEAN_ANOMALY":52.7201,"EPHEMERIS_TYPE":0,"CLASSIFICATION_TYPE":"U","NORAD_CAT_ID":35231,"ELEMENT_SET_NO":999,"REV_AT_EPOCH":92190,"BSTAR":2.2224609e-5,"MEAN_MOTION_DOT":0,"MEAN_MOTION_DDOT":0},{"OBJECT_NAME":"FENGYUN 1C DEB","OBJECT_ID":"1999-025DQR","EPOCH":"2026-02-01T05:37:45.622848","MEAN_MOTION":14.42748935,"ECCENTRICITY":0.00410656,"INCLINATION":98.7662,"RA_OF_ASC_NODE":137.7572,"ARG_OF_PERICENTER":115.1153,"MEAN_ANOMALY":275.6387,"EPHEMERIS_TYPE":0,"CLASSIFICATION_TYPE":"U","NORAD_CAT_ID":35233,"ELEMENT_SET_NO":999,"REV_AT_EPOCH":91904,"BSTAR":0.0017918233,"MEAN_MOTION_DOT":5.988e-5,"MEAN_MOTION_DDOT":0},{"OBJECT_NAME":"FENGYUN 1C DEB","OBJECT_ID":"1999-025DQS","EPOCH":"2026-01-31T19:23:03.155424","MEAN_MOTION":14.65949594,"ECCENTRICITY":0.01014641,"INCLINATION":98.0641,"RA_OF_ASC_NODE":63.8463,"ARG_OF_PERICENTER":104.8296,"MEAN_ANOMALY":256.4173,"EPHEMERIS_TYPE":0,"CLASSIFICATION_TYPE":"U","NORAD_CAT_ID":35234,"ELEMENT_SET_NO":999,"REV_AT_EPOCH":95089,"BSTAR":0.00055154602,"MEAN_MOTION_DOT":3.207e-5,"MEAN_MOTION_DDOT":0},{"OBJECT_NAME":"FENGYUN 1C DEB","OBJECT_ID":"1999-025DQU","EPOCH":"2026-01-29T14:12:41.113728","MEAN_MOTION":14.4568698,"ECCENTRICITY":0.00870812,"INCLINATION":98.8097,"RA_OF_ASC_NODE":323.6018,"ARG_OF_PERICENTER":48.1438,"MEAN_ANOMALY":312.7143,"EPHEMERIS_TYPE":0,"CLASSIFICATION_TYPE":"U","NORAD_CAT_ID":35236,"ELEMENT_SET_NO":999,"REV_AT_EPOCH":98623,"BSTAR":0.0010391579,"MEAN_MOTION_DOT":3.805e-5,"MEAN_MOTION_DDOT":0},{"OBJECT_NAME":"FENGYUN 1C DEB","OBJECT_ID":"1999-025DQX","EPOCH":"2026-02-01T09:37:50.610144","MEAN_MOTION":13.69406262,"ECCENTRICITY":0.02293285,"INCLINATION":99.2681,"RA_OF_ASC_NODE":196.2018,"ARG_OF_PERICENTER":238.1756,"MEAN_ANOMALY":119.6879,"EPHEMERIS_TYPE":0,"CLASSIFICATION_TYPE":"U","NORAD_CAT_ID":35239,"ELEMENT_SET_NO":999,"REV_AT_EPOCH":58824,"BSTAR":0.0017369522,"MEAN_MOTION_DOT":1.773e-5,"MEAN_MOTION_DDOT":0},{"OBJECT_NAME":"FENGYUN 1C DEB","OBJECT_ID":"1999-025DQY","EPOCH":"2026-01-30T20:34:00.043680","MEAN_MOTION":14.2384664,"ECCENTRICITY":0.00486367,"INCLINATION":99.3519,"RA_OF_ASC_NODE":1.3461,"ARG_OF_PERICENTER":14.3827,"MEAN_ANOMALY":345.8721,"EPHEMERIS_TYPE":0,"CLASSIFICATION_TYPE":"U","NORAD_CAT_ID":35240,"ELEMENT_SET_NO":999,"REV_AT_EPOCH":93863,"BSTAR":0.0023950398,"MEAN_MOTION_DOT":5.504e-5,"MEAN_MOTION_DDOT":0},{"OBJECT_NAME":"FENGYUN 1C DEB","OBJECT_ID":"1999-025DRA","EPOCH":"2026-02-01T15:33:33.228864","MEAN_MOTION":13.52433854,"ECCENTRICITY":0.02983668,"INCLINATION":99.9654,"RA_OF_ASC_NODE":90.4959,"ARG_OF_PERICENTER":63.1037,"MEAN_ANOMALY":85.4443,"EPHEMERIS_TYPE":0,"CLASSIFICATION_TYPE":"U","NORAD_CAT_ID":35242,"ELEMENT_SET_NO":999,"REV_AT_EPOCH":58815,"BSTAR":0.00040346095,"MEAN_MOTION_DOT":3.09e-6,"MEAN_MOTION_DDOT":0},{"OBJECT_NAME":"FENGYUN 1C DEB","OBJECT_ID":"1999-025DRB","EPOCH":"2026-02-01T04:53:13.306272","MEAN_MOTION":14.89795255,"ECCENTRICITY":0.00618002,"INCLINATION":98.8748,"RA_OF_ASC_NODE":122.0925,"ARG_OF_PERICENTER":96.5176,"MEAN_ANOMALY":264.3079,"EPHEMERIS_TYPE":0,"CLASSIFICATION_TYPE":"U","NORAD_CAT_ID":35243,"ELEMENT_SET_NO":999,"REV_AT_EPOCH":91751,"BSTAR":0.0020674425,"MEAN_MOTION_DOT":0.00020544,"MEAN_MOTION_DDOT":0}]
